#aV2012  4 17  0  0  0.00000000     288 DD+AD WGS84 FIT  NGA
## 1684 172800.00000000   300.00000000 56034 0.0000000000000
+   31     1  2  3  4  5  6  7  8  9 10 11 12 13 14 15 16 17
+         18 19 20 21 22 23 25 26 27 28 29 30 31 32  0  0  0
+          0  0  0  0  0  0  0  0  0  0  0  0  0  0  0  0  0
+          0  0  0  0  0  0  0  0  0  0  0  0  0  0  0  0  0
+          0  0  0  0  0  0  0  0  0  0  0  0  0  0  0  0  0
++         2  2  2  2  2  2  2  2  2  2  2  2  2  2  2  2  2
++         2  2  2  2  2  2  2  2  2  2  2  2  2  2  2  0  0
++         0  0  0  0  0  0  0  0  0  0  0  0  0  0  0  0  0
++         0  0  0  0  0  0  0  0  0  0  0  0  0  0  0  0  0
++         0  0  0  0  0  0  0  0  0  0  0  0  0  0  0  0  0
%c cc cc ccc ccc cccc cccc cccc cccc ccccc ccccc ccccc ccccc
%c cc cc ccc ccc cccc cccc cccc cccc ccccc ccccc ccccc ccccc
%f  0.0000000  0.000000000  0.00000000000  0.000000000000000
%f  0.0000000  0.000000000  0.00000000000  0.000000000000000
%i    0    0    0    0      0      0      0      0         0
%i    0    0    0    0      0      0      0      0         0
/*      NGA, ST. LOUIS,MO.                                  
/*   EPHEMERIS COMPUTED FROM  1 DAYS OF DATA
/*   EPOCHA SMOOTHER  
/* CCCCCCCCCCCCCCCCCCCCCCCCCCCCCCCCCCCCCCCCCCCCCCCCCCCCCCCCC
*  2012  4 17 15 40  0.00000000                                                 
P  1 -13433.398200  14915.260280  17371.314350    249.047017                    
V  1    111.989633 -22153.422065  19123.490439      0.043066                    
P  2  13704.867445  11314.403151 -19761.344957    387.010108                    
V  2  -2887.438361  25149.768737  11817.031133      0.013962                    
P  3 -24511.535809  -9930.944827   3276.434911     37.141975                    
V  3  -2553.930248  -5300.047796 -30525.947290      0.049146                    
P  4   8362.397374  21049.304692 -13855.722574    156.254806                    
V  4  -4356.243513  17057.697251  24025.106933      0.114455                    
P  5  22162.671972   1193.323464 -14703.156178   -305.929549                    
V  5 -15916.497080   9879.090596 -23103.047519     -0.040567                    
P  6 -23010.243616 -13573.304502    755.400596     30.391423                    
V  6   1051.497137  -3225.344520 -31018.789379     -0.012544                    
P  7  -7025.868098  24597.360251  -6618.349845     73.432451                    
V  7  -1560.684307  -8679.104937 -30752.016722      0.032443                    
P  8   -313.670248  25388.097507   6753.510258      1.042048                    
V  8  -3542.565336   8082.828805 -31392.961979      0.000638                    
P  9  13730.106295 -10992.770946  19358.942733    152.142198                    
V  9   -895.512030  25728.968435  14796.333033      0.025988                    
P 10   7076.599597  13972.440510 -21708.583664    -35.687264                    
V 10 -24750.563509  10840.128523   -709.718765     -0.010588                    
P 11 -14903.654012   8368.906879  19904.812199   -252.465898                    
V 11  -6099.002201 -25827.931617   6498.904812     -0.037298                    
P 12  24326.193196 -10385.552076    371.837787     64.020702                    
V 12    527.357521   2383.424430  32286.137975      0.020986                    
P 13  -4525.826731  14930.600800 -21626.105459    212.876795                    
V 13 -20976.698197 -17102.850022  -7556.612465     -0.022992                    
P 14 -12725.410392 -20325.310802  11745.073753    200.377955                    
V 14  12463.439933   7738.053663  27165.207089      0.010566                    
P 15  19855.938612  -2022.567373  17615.939361    -91.394565                    
V 15  17593.039695  13904.777123 -18015.868115      0.000930                    
P 16 -21851.949492  -1925.563854 -15188.890130   -231.691836                    
V 16  17128.266916  -8650.393032 -23220.254290     -0.014064                    
P 17  11097.741040  20208.142054  13569.957763    135.154882                    
V 17 -14631.754566  -8576.242225  24830.350506     -0.027374                    
P 18   9912.992418 -18215.734919  16743.467223    191.439474                    
V 18  19998.808055  -6364.699266 -19539.160245      0.018109                    
P 19 -20919.720354  -2634.560584  16344.457847   -256.494158                    
V 19 -14754.928777 -14578.743619 -20803.509469     -0.037263                    
P 20 -21718.521453  14721.934887  -4051.728894     63.218138                    
V 20  -6146.965815  -1011.762547  30548.994019      0.000208                    
P 21   3616.978915 -25903.517144  -1597.900403   -217.894715                    
V 21   4006.333418   3029.734093 -31390.446717     -0.024772                    
P 22  -5771.192776 -14944.518480  21359.947562    143.384328                    
V 22  24551.906494 -10860.559553  -1096.947022      0.001901                    
P 23 -14841.575875   7273.816385 -20835.071767    213.892536                    
V 23 -21075.504938 -15989.633386   9053.866545     -0.035870                    
P 25  16010.405206 -17144.899385 -12428.579839     33.082469                    
V 25  15135.430777  -4848.819293  26303.167377      0.003475                    
P 26  22338.623716  12590.426265   7009.728613   -315.730266                    
V 26   6223.346492   7562.909844 -30340.123159     -0.531469                    
P 27  15030.726570  -2971.166835  22267.125999    378.424424                    
V 27   -864.600321  26780.675822   4745.197344      0.041780                    
P 28   2396.838906  15162.696523  22209.212627    134.452791                    
V 28 -24985.576376   9833.825222  -4335.566924      0.041480                    
P 29   6990.462051 -13616.246078 -21639.670632    304.244083                    
V 29  22084.107176  16611.817628  -3264.708000      0.036401                    
P 30 -14404.785893  -8531.959867 -20976.797872   -135.573071                    
V 30  21789.457602 -13893.976492  -9466.284868     -0.183720                    
P 31  -7684.018004 -20525.561823 -14633.587620    232.219900                    
V 31   3820.025280 -18679.320388  24118.571257      0.042472                    
P 32 -25258.560378   6601.443612   3417.859643   -433.761991                    
V 32   2716.613780  -4654.031949  31470.260098     -0.044336                    
EOF
